STARLINK-4045           
1 53152U 22083W   25323.25338986 -.00001763  00000+0 -92685-4 0  9992
2 53152  53.2167 299.8877 0001377  84.4698 275.6451 15.08843326184686
STARLINK-4098           
1 53153U 22083X   25323.24234838 -.00000345  00000+0 -35703-5 0  9997
2 53153  53.2185 299.9372 0001291  76.7652 283.3485 15.08841435184689
STARLINK-4077           
1 53154U 22083Y   25323.24971110  .00000261  00000+0  34519-4 0  9997
2 53154  53.2176 299.9023 0001387  92.0399 268.0752 15.08839732184682
STARLINK-4088           
1 53155U 22083Z   25323.23499025  .00000172  00000+0  28918-4 0  9994
2 53155  53.2181 299.9717 0001677  97.0040 263.1143 15.08837296185324
STARLINK-4087           
1 53156U 22083AA  25323.22393564 -.00000252  00000+0  22443-5 0  9993
2 53156  53.2189 299.8974 0001457  90.5366 269.5793 15.08836606184685
STARLINK-4054           
1 53158U 22083AC  25323.23866820  .00002326  00000+0  16419-3 0  9993
2 53158  53.2170 299.9549 0001647  90.1344 269.9837 15.08842088184683
STARLINK-4111           
1 53159U 22083AD  25323.22026647  .00000723  00000+0  63531-4 0  9995
2 53159  53.2184 300.0384 0001861  88.6540 271.4666 15.08840607184681
STARLINK-4096           
1 53160U 22083AE  25323.23130732  .00000888  00000+0  73882-4 0  9991
2 53160  53.2177 299.9882 0001446  98.3431 261.7725 15.08834733184681
STARLINK-4055           
1 53161U 22083AF  25323.20923078  .00000564  00000+0  53503-4 0  9991
2 53161  53.2169 300.0852 0001375  95.0978 265.0171 15.08844063184684
STARLINK-4114           
1 53162U 22083AG  25323.22490195 -.00000331  00000+0 -26652-5 0  9993
2 53162  53.2180 300.0258 0002518  87.5709 272.5571 15.08836630184684
STARLINK-4104           
1 53163U 22083AH  25323.21661926  .00000737  00000+0  64396-4 0  9999
2 53163  53.2189 300.1983 0001335  94.0757 266.0388 15.08826820184686
STARLINK-4116           
1 53164U 22083AJ  25323.21290564  .00001604  00000+0  11884-3 0  9993
2 53164  53.2169 300.0680 0001358  92.6583 267.4564 15.08846204184683
STARLINK-4090           
1 53165U 22083AK  25323.26442751  .00000685  00000+0  61109-4 0  9990
2 53165  53.2176 299.8364 0001340  88.9908 271.1237 15.08839289184691
STARLINK-4110           
1 53166U 22083AL  25323.26167456  .00004098  00000+0  27520-3 0  9997
2 53166  53.2183 299.7523 0001529  87.8393 272.2775 15.08865060184696
STARLINK-3683           
1 53167U 22083AM  25323.21614428  .00000389  00000+0  42507-4 0  9991
2 53167  53.2181 285.0440 0001447  76.9414 283.1740 15.08837478184889
STARLINK-4105           
1 53168U 22083AN  25323.20186987 -.00000966  00000+0 -42563-4 0  9990
2 53168  53.2185 300.1186 0001454  72.9909 287.1242 15.08854115184689
