[{"OBJECT_NAME":"STARLINK-4045","OBJECT_ID":"2022-083W","EPOCH":"2025-11-19T06:04:52.883904","MEAN_MOTION":15.08843326,"ECCENTRICITY":0.00013772,"INCLINATION":53.2167,"RA_OF_ASC_NODE":299.8877,"ARG_OF_PERICENTER":84.4698,"MEAN_ANOMALY":275.6451,"EPHEMERIS_TYPE":0,"CLASSIFICATION_TYPE":"U","NORAD_CAT_ID":53152,"ELEMENT_SET_NO":999,"REV_AT_EPOCH":18468,"BSTAR":-9.2684982e-5,"MEAN_MOTION_DOT":-1.763e-5,"MEAN_MOTION_DDOT":0},{"OBJECT_NAME":"STARLINK-4098","OBJECT_ID":"2022-083X","EPOCH":"2025-11-19T05:48:58.900032","MEAN_MOTION":15.08841435,"ECCENTRICITY":0.00012916,"INCLINATION":53.2185,"RA_OF_ASC_NODE":299.9372,"ARG_OF_PERICENTER":76.7652,"MEAN_ANOMALY":283.3485,"EPHEMERIS_TYPE":0,"CLASSIFICATION_TYPE":"U","NORAD_CAT_ID":53153,"ELEMENT_SET_NO":999,"REV_AT_EPOCH":18468,"BSTAR":-3.570282e-6,"MEAN_MOTION_DOT":-3.45e-6,"MEAN_MOTION_DDOT":0},{"OBJECT_NAME":"STARLINK-4077","OBJECT_ID":"2022-083Y","EPOCH":"2025-11-19T05:59:35.039040","MEAN_MOTION":15.08839732,"ECCENTRICITY":0.00013875,"INCLINATION":53.2176,"RA_OF_ASC_NODE":299.9023,"ARG_OF_PERICENTER":92.0399,"MEAN_ANOMALY":268.0752,"EPHEMERIS_TYPE":0,"CLASSIFICATION_TYPE":"U","NORAD_CAT_ID":53154,"ELEMENT_SET_NO":999,"REV_AT_EPOCH":18468,"BSTAR":3.4518578e-5,"MEAN_MOTION_DOT":2.61e-6,"MEAN_MOTION_DDOT":0},{"OBJECT_NAME":"STARLINK-4088","OBJECT_ID":"2022-083Z","EPOCH":"2025-11-19T05:38:23.157600","MEAN_MOTION":15.08837296,"ECCENTRICITY":0.00016774,"INCLINATION":53.2181,"RA_OF_ASC_NODE":299.9717,"ARG_OF_PERICENTER":97.004,"MEAN_ANOMALY":263.1143,"EPHEMERIS_TYPE":0,"CLASSIFICATION_TYPE":"U","NORAD_CAT_ID":53155,"ELEMENT_SET_NO":999,"REV_AT_EPOCH":18532,"BSTAR":2.8917896e-5,"MEAN_MOTION_DOT":1.72e-6,"MEAN_MOTION_DDOT":0},{"OBJECT_NAME":"STARLINK-4087","OBJECT_ID":"2022-083AA","EPOCH":"2025-11-19T05:22:28.039296","MEAN_MOTION":15.08836606,"ECCENTRICITY":0.0001457,"INCLINATION":53.2189,"RA_OF_ASC_NODE":299.8974,"ARG_OF_PERICENTER":90.5366,"MEAN_ANOMALY":269.5793,"EPHEMERIS_TYPE":0,"CLASSIFICATION_TYPE":"U","NORAD_CAT_ID":53156,"ELEMENT_SET_NO":999,"REV_AT_EPOCH":18468,"BSTAR":2.244251e-6,"MEAN_MOTION_DOT":-2.52e-6,"MEAN_MOTION_DDOT":0},{"OBJECT_NAME":"STARLINK-4054","OBJECT_ID":"2022-083AC","EPOCH":"2025-11-19T05:43:40.932480","MEAN_MOTION":15.08842088,"ECCENTRICITY":0.00016471,"INCLINATION":53.217,"RA_OF_ASC_NODE":299.9549,"ARG_OF_PERICENTER":90.1344,"MEAN_ANOMALY":269.9837,"EPHEMERIS_TYPE":0,"CLASSIFICATION_TYPE":"U","NORAD_CAT_ID":53158,"ELEMENT_SET_NO":999,"REV_AT_EPOCH":18468,"BSTAR":0.00016419456,"MEAN_MOTION_DOT":2.326e-5,"MEAN_MOTION_DDOT":0},{"OBJECT_NAME":"STARLINK-4111","OBJECT_ID":"2022-083AD","EPOCH":"2025-11-19T05:17:11.023008","MEAN_MOTION":15.08840607,"ECCENTRICITY":0.00018616,"INCLINATION":53.2184,"RA_OF_ASC_NODE":300.0384,"ARG_OF_PERICENTER":88.654,"MEAN_ANOMALY":271.4666,"EPHEMERIS_TYPE":0,"CLASSIFICATION_TYPE":"U","NORAD_CAT_ID":53159,"ELEMENT_SET_NO":999,"REV_AT_EPOCH":18468,"BSTAR":6.3531172e-5,"MEAN_MOTION_DOT":7.23e-6,"MEAN_MOTION_DDOT":0},{"OBJECT_NAME":"STARLINK-4096","OBJECT_ID":"2022-083AE","EPOCH":"2025-11-19T05:33:04.952448","MEAN_MOTION":15.08834733,"ECCENTRICITY":0.00014468,"INCLINATION":53.2177,"RA_OF_ASC_NODE":299.9882,"ARG_OF_PERICENTER":98.3431,"MEAN_ANOMALY":261.7725,"EPHEMERIS_TYPE":0,"CLASSIFICATION_TYPE":"U","NORAD_CAT_ID":53160,"ELEMENT_SET_NO":999,"REV_AT_EPOCH":18468,"BSTAR":7.3882225e-5,"MEAN_MOTION_DOT":8.88e-6,"MEAN_MOTION_DDOT":0},{"OBJECT_NAME":"STARLINK-4055","OBJECT_ID":"2022-083AF","EPOCH":"2025-11-19T05:01:17.539392","MEAN_MOTION":15.08844063,"ECCENTRICITY":0.00013757,"INCLINATION":53.2169,"RA_OF_ASC_NODE":300.0852,"ARG_OF_PERICENTER":95.0978,"MEAN_ANOMALY":265.0171,"EPHEMERIS_TYPE":0,"CLASSIFICATION_TYPE":"U","NORAD_CAT_ID":53161,"ELEMENT_SET_NO":999,"REV_AT_EPOCH":18468,"BSTAR":5.3503103e-5,"MEAN_MOTION_DOT":5.64e-6,"MEAN_MOTION_DDOT":0},{"OBJECT_NAME":"STARLINK-4114","OBJECT_ID":"2022-083AG","EPOCH":"2025-11-19T05:23:51.528480","MEAN_MOTION":15.0883663,"ECCENTRICITY":0.00025187,"INCLINATION":53.218,"RA_OF_ASC_NODE":300.0258,"ARG_OF_PERICENTER":87.5709,"MEAN_ANOMALY":272.5571,"EPHEMERIS_TYPE":0,"CLASSIFICATION_TYPE":"U","NORAD_CAT_ID":53162,"ELEMENT_SET_NO":999,"REV_AT_EPOCH":18468,"BSTAR":-2.665248e-6,"MEAN_MOTION_DOT":-3.31e-6,"MEAN_MOTION_DDOT":0},{"OBJECT_NAME":"STARLINK-4104","OBJECT_ID":"2022-083AH","EPOCH":"2025-11-19T05:11:55.904064","MEAN_MOTION":15.0882682,"ECCENTRICITY":0.00013354,"INCLINATION":53.2189,"RA_OF_ASC_NODE":300.1983,"ARG_OF_PERICENTER":94.0757,"MEAN_ANOMALY":266.0388,"EPHEMERIS_TYPE":0,"CLASSIFICATION_TYPE":"U","NORAD_CAT_ID":53163,"ELEMENT_SET_NO":999,"REV_AT_EPOCH":18468,"BSTAR":6.4396138e-5,"MEAN_MOTION_DOT":7.37e-6,"MEAN_MOTION_DDOT":0},{"OBJECT_NAME":"STARLINK-4116","OBJECT_ID":"2022-083AJ","EPOCH":"2025-11-19T05:06:35.047296","MEAN_MOTION":15.08846204,"ECCENTRICITY":0.0001358,"INCLINATION":53.2169,"RA_OF_ASC_NODE":300.068,"ARG_OF_PERICENTER":92.6583,"MEAN_ANOMALY":267.4564,"EPHEMERIS_TYPE":0,"CLASSIFICATION_TYPE":"U","NORAD_CAT_ID":53164,"ELEMENT_SET_NO":999,"REV_AT_EPOCH":18468,"BSTAR":0.00011883706,"MEAN_MOTION_DOT":1.604e-5,"MEAN_MOTION_DDOT":0},{"OBJECT_NAME":"STARLINK-4090","OBJECT_ID":"2022-083AK","EPOCH":"2025-11-19T06:20:46.536864","MEAN_MOTION":15.08839289,"ECCENTRICITY":0.00013402,"INCLINATION":53.2176,"RA_OF_ASC_NODE":299.8364,"ARG_OF_PERICENTER":88.9908,"MEAN_ANOMALY":271.1237,"EPHEMERIS_TYPE":0,"CLASSIFICATION_TYPE":"U","NORAD_CAT_ID":53165,"ELEMENT_SET_NO":999,"REV_AT_EPOCH":18469,"BSTAR":6.1109277e-5,"MEAN_MOTION_DOT":6.85e-6,"MEAN_MOTION_DDOT":0},{"OBJECT_NAME":"STARLINK-4110","OBJECT_ID":"2022-083AL","EPOCH":"2025-11-19T06:16:48.681984","MEAN_MOTION":15.0886506,"ECCENTRICITY":0.00015295,"INCLINATION":53.2183,"RA_OF_ASC_NODE":299.7523,"ARG_OF_PERICENTER":87.8393,"MEAN_ANOMALY":272.2775,"EPHEMERIS_TYPE":0,"CLASSIFICATION_TYPE":"U","NORAD_CAT_ID":53166,"ELEMENT_SET_NO":999,"REV_AT_EPOCH":18469,"BSTAR":0.00027520363,"MEAN_MOTION_DOT":4.098e-5,"MEAN_MOTION_DDOT":0},{"OBJECT_NAME":"STARLINK-3683","OBJECT_ID":"2022-083AM","EPOCH":"2025-11-19T05:11:14.865792","MEAN_MOTION":15.08837478,"ECCENTRICITY":0.00014472,"INCLINATION":53.2181,"RA_OF_ASC_NODE":285.044,"ARG_OF_PERICENTER":76.9414,"MEAN_ANOMALY":283.174,"EPHEMERIS_TYPE":0,"CLASSIFICATION_TYPE":"U","NORAD_CAT_ID":53167,"ELEMENT_SET_NO":999,"REV_AT_EPOCH":18488,"BSTAR":4.2506572e-5,"MEAN_MOTION_DOT":3.89e-6,"MEAN_MOTION_DDOT":0},{"OBJECT_NAME":"STARLINK-4105","OBJECT_ID":"2022-083AN","EPOCH":"2025-11-19T04:50:41.556768","MEAN_MOTION":15.08854115,"ECCENTRICITY":0.00014545,"INCLINATION":53.2185,"RA_OF_ASC_NODE":300.1186,"ARG_OF_PERICENTER":72.9909,"MEAN_ANOMALY":287.1242,"EPHEMERIS_TYPE":0,"CLASSIFICATION_TYPE":"U","NORAD_CAT_ID":53168,"ELEMENT_SET_NO":999,"REV_AT_EPOCH":18468,"BSTAR":-4.2563156e-5,"MEAN_MOTION_DOT":-9.66e-6,"MEAN_MOTION_DDOT":0}]
